CELESTIS-17 & SHERPA-FX1
1 47486U 21006CB  26068.64311433  .00007207  00000+0  24301-3 0  9993
2 47486  97.2397 112.1052 0006630 178.1385 181.9882 15.30994801284065
STARLINK-35724          
1 66279U 25247Q   26068.64845163  .00004667  00000+0  16971-3 0  9998
2 66279  53.1588 191.9012 0001136  87.9340 272.1791 15.30175525 21025
